start=new Date('2023-02-04T00:00:00.000Z').valueOf();
sats=[{"MEAN_MOTION":"15.06405330","MEAN_MOTION_DDOT":"0.0000000000000","CENTER_NAME":"EARTH","PERIAPSIS":"546.228","MEAN_ELEMENT_THEORY":"SGP4","GP_ID":"224308163","SITE":"AFETR","EPOCH":"2023-02-03T06:20:29.946336","COUNTRY_CODE":"US","REV_AT_EPOCH":"16946","ARG_OF_PERICENTER":"100.2911","LAUNCH_DATE":"2020-01-07","OBJECT_TYPE":"PAYLOAD","OBJECT_ID":"2020-001L","BSTAR":"0.00019023000000","INCLINATION":"53.0551","ECCENTRICITY":"0.00014000","NORAD_CAT_ID":"44924","TIME_SYSTEM":"UTC","DECAY_DATE":null,"CLASSIFICATION_TYPE":"U","MEAN_ANOMALY":"259.8236","FILE":"3770323","ELEMENT_SET_NO":"999","SEMIMAJOR_AXIS":"6925.332","TLE_LINE2":"2 44924  53.0551  21.3104 0001400 100.2911 259.8236 15.06405330169462","MEAN_MOTION_DOT":"0.00002554","RCS_SIZE":"LARGE","PERIOD":"95.592","RA_OF_ASC_NODE":"21.3104","TLE_LINE1":"1 44924U 20001L   23034.26423549  .00002554  00000-0  19023-3 0  9997","EPHEMERIS_TYPE":"0","REF_FRAME":"TEME","OBJECT_NAME":"STARLINK-1111","APOAPSIS":"548.167"},{"OBJECT_ID":"2020-001M","OBJECT_TYPE":"PAYLOAD","INCLINATION":"53.0541","BSTAR":"0.00050375000000","REV_AT_EPOCH":"16947","LAUNCH_DATE":"2020-01-07","ARG_OF_PERICENTER":"92.8162","NORAD_CAT_ID":"44925","TIME_SYSTEM":"UTC","ECCENTRICITY":"0.00014910","PERIAPSIS":"546.146","CENTER_NAME":"EARTH","MEAN_MOTION":"15.06411319","MEAN_MOTION_DDOT":"0.0000000000000","COUNTRY_CODE":"US","EPOCH":"2023-02-03T08:17:15.967680","MEAN_ELEMENT_THEORY":"SGP4","GP_ID":"224309413","SITE":"AFETR","RA_OF_ASC_NODE":"20.9346","PERIOD":"95.591","APOAPSIS":"548.211","OBJECT_NAME":"STARLINK-1112","EPHEMERIS_TYPE":"0","TLE_LINE1":"1 44925U 20001M   23034.34532370  .00007232  00000-0  50375-3 0  9993","REF_FRAME":"TEME","CLASSIFICATION_TYPE":"U","MEAN_ANOMALY":"267.2997","DECAY_DATE":null,"TLE_LINE2":"2 44925  53.0541  20.9346 0001491  92.8162 267.2997 15.06411319169471","SEMIMAJOR_AXIS":"6925.314","RCS_SIZE":"LARGE","MEAN_MOTION_DOT":"0.00007232","ELEMENT_SET_NO":"999","FILE":"3770323"},{"ECCENTRICITY":"0.00016390","NORAD_CAT_ID":"44926","TIME_SYSTEM":"UTC","REV_AT_EPOCH":"17016","ARG_OF_PERICENTER":"100.4644","LAUNCH_DATE":"2020-01-07","OBJECT_TYPE":"PAYLOAD","OBJECT_ID":"2020-001N","INCLINATION":"53.0330","BSTAR":"0.00038676000000","EPOCH":"2023-02-03T08:11:58.502112","MEAN_ELEMENT_THEORY":"SGP4","GP_ID":"224309664","SITE":"AFETR","COUNTRY_CODE":"US","MEAN_MOTION":"15.06405970","MEAN_MOTION_DDOT":"0.0000000000000","PERIAPSIS":"546.060","CENTER_NAME":"EARTH","EPHEMERIS_TYPE":"0","TLE_LINE1":"1 44926U 20001N   23034.34164933  .00005485  00000-0  38676-3 0  9998","REF_FRAME":"TEME","APOAPSIS":"548.330","OBJECT_NAME":"STARLINK-1113","PERIOD":"95.592","RA_OF_ASC_NODE":"20.9640","ELEMENT_SET_NO":"999","FILE":"3770323","TLE_LINE2":"2 44926  53.0330  20.9640 0001639 100.4644 259.6529 15.06405970170160","SEMIMAJOR_AXIS":"6925.330","RCS_SIZE":"LARGE","MEAN_MOTION_DOT":"0.00005485","DECAY_DATE":null,"CLASSIFICATION_TYPE":"U","MEAN_ANOMALY":"259.6529"},{"PERIOD":"95.592","RA_OF_ASC_NODE":"20.8784","REF_FRAME":"TEME","TLE_LINE1":"1 44927U 20001P   23034.35637739  .00001605  00000-0  12658-3 0  9991","EPHEMERIS_TYPE":"0","APOAPSIS":"548.219","OBJECT_NAME":"STARLINK-1114","DECAY_DATE":null,"MEAN_ANOMALY":"267.4623","CLASSIFICATION_TYPE":"U","FILE":"3770323","ELEMENT_SET_NO":"999","MEAN_MOTION_DOT":"0.00001605","RCS_SIZE":"LARGE","SEMIMAJOR_AXIS":"6925.330","TLE_LINE2":"2 44927  53.0561  20.8784 0001479  92.6535 267.4623 15.06406009169487","LAUNCH_DATE":"2020-01-07","ARG_OF_PERICENTER":"92.6535","REV_AT_EPOCH":"16948","BSTAR":"0.00012658000000","INCLINATION":"53.0561","OBJECT_TYPE":"PAYLOAD","OBJECT_ID":"2020-001P","ECCENTRICITY":"0.00014790","TIME_SYSTEM":"UTC","NORAD_CAT_ID":"44927","MEAN_MOTION_DDOT":"0.0000000000000","MEAN_MOTION":"15.06406009","CENTER_NAME":"EARTH","PERIAPSIS":"546.171","SITE":"AFETR","GP_ID":"224308412","MEAN_ELEMENT_THEORY":"SGP4","EPOCH":"2023-02-03T08:33:11.006496","COUNTRY_CODE":"US"},{"MEAN_ELEMENT_THEORY":"SGP4","GP_ID":"224308662","SITE":"AFETR","EPOCH":"2023-02-03T08:27:52.549920","COUNTRY_CODE":"US","MEAN_MOTION":"15.06406381","MEAN_MOTION_DDOT":"0.0000000000000","CENTER_NAME":"EARTH","PERIAPSIS":"546.191","ECCENTRICITY":"0.00014490","NORAD_CAT_ID":"44928","TIME_SYSTEM":"UTC","REV_AT_EPOCH":"16948","LAUNCH_DATE":"2020-01-07","ARG_OF_PERICENTER":"98.4720","OBJECT_ID":"2020-001Q","OBJECT_TYPE":"PAYLOAD","BSTAR":"0.00006918700000","INCLINATION":"53.0548","FILE":"3770323","ELEMENT_SET_NO":"999","SEMIMAJOR_AXIS":"6925.329","TLE_LINE2":"2 44928  53.0548  20.9011 0001449  98.4720 261.6433 15.06406381169482","MEAN_MOTION_DOT":"0.00000749","RCS_SIZE":"LARGE","DECAY_DATE":null,"CLASSIFICATION_TYPE":"U","MEAN_ANOMALY":"261.6433","TLE_LINE1":"1 44928U 20001Q   23034.35269155  .00000749  00000-0  69187-4 0  9993","EPHEMERIS_TYPE":"0","REF_FRAME":"TEME","APOAPSIS":"548.197","OBJECT_NAME":"STARLINK-1119","PERIOD":"95.592","RA_OF_ASC_NODE":"20.9011"},{"REF_FRAME":"TEME","EPHEMERIS_TYPE":"0","TLE_LINE1":"1 44929U 20001R   23034.27160452  .00000255  00000-0  36043-4 0  9992","APOAPSIS":"548.187","OBJECT_NAME":"STARLINK-1121","PERIOD":"95.592","RA_OF_ASC_NODE":"21.2693","ELEMENT_SET_NO":"999","FILE":"3770323","RCS_SIZE":"LARGE","MEAN_MOTION_DOT":"0.00000255","TLE_LINE2":"2 44929  53.0554  21.2693 0001428 103.3875 256.7274 15.06405042169463","SEMIMAJOR_AXIS":"6925.333","DECAY_DATE":null,"MEAN_ANOMALY":"256.7274","CLASSIFICATION_TYPE":"U","ECCENTRICITY":"0.00014280","TIME_SYSTEM":"UTC","NORAD_CAT_ID":"44929","ARG_OF_PERICENTER":"103.3875","LAUNCH_DATE":"2020-01-07","REV_AT_EPOCH":"16946","INCLINATION":"53.0554","BSTAR":"0.00003604300000","OBJECT_TYPE":"PAYLOAD","OBJECT_ID":"2020-001R","EPOCH":"2023-02-03T06:31:06.630528","GP_ID":"224308914","SITE":"AFETR","MEAN_ELEMENT_THEORY":"SGP4","COUNTRY_CODE":"US","MEAN_MOTION_DDOT":"0.0000000000000","MEAN_MOTION":"15.06405042","PERIAPSIS":"546.209","CENTER_NAME":"EARTH"},{"COUNTRY_CODE":"US","EPOCH":"2023-02-03T18:27:39.694752","MEAN_ELEMENT_THEORY":"SGP4","GP_ID":"224344418","SITE":"AFETR","PERIAPSIS":"546.218","CENTER_NAME":"EARTH","MEAN_MOTION_DDOT":"0.0000000000000","MEAN_MOTION":"15.06398366","TIME_SYSTEM":"UTC","NORAD_CAT_ID":"44930","ECCENTRICITY":"0.00014450","INCLINATION":"53.0531","BSTAR":"0.00014023000000","OBJECT_ID":"2020-001S","OBJECT_TYPE":"PAYLOAD","LAUNCH_DATE":"2020-01-07","ARG_OF_PERICENTER":"103.5635","REV_AT_EPOCH":"16954","RCS_SIZE":"LARGE","MEAN_MOTION_DOT":"0.00001808","TLE_LINE2":"2 44930  53.0531  19.0368 0001445 103.5635 256.5514 15.06398366169543","SEMIMAJOR_AXIS":"6925.354","ELEMENT_SET_NO":"999","FILE":"3770748","MEAN_ANOMALY":"256.5514","CLASSIFICATION_TYPE":"U","DECAY_DATE":null,"APOAPSIS":"548.219","OBJECT_NAME":"STARLINK-1123","REF_FRAME":"TEME","EPHEMERIS_TYPE":"0","TLE_LINE1":"1 44930U 20001S   23034.76920943  .00001808  00000-0  14023-3 0  9995","RA_OF_ASC_NODE":"19.0368","PERIOD":"95.592"},{"PERIOD":"95.291","RA_OF_ASC_NODE":"8.9833","EPHEMERIS_TYPE":"0","TLE_LINE1":"1 44931U 20001T   23034.21859043  .00000035  00000-0  19437-4 0  9994","REF_FRAME":"TEME","APOAPSIS":"533.852","OBJECT_NAME":"STARLINK-1128","DECAY_DATE":null,"CLASSIFICATION_TYPE":"U","MEAN_ANOMALY":"263.3589","ELEMENT_SET_NO":"999","FILE":"3770323","TLE_LINE2":"2 44931  53.0555   8.9833 0001740  96.7600 263.3589 15.11164310170385","SEMIMAJOR_AXIS":"6910.785","RCS_SIZE":"LARGE","MEAN_MOTION_DOT":"0.00000035","REV_AT_EPOCH":"17038","LAUNCH_DATE":"2020-01-07","ARG_OF_PERICENTER":"96.7600","OBJECT_ID":"2020-001T","OBJECT_TYPE":"PAYLOAD","INCLINATION":"53.0555","BSTAR":"0.00001943700000","ECCENTRICITY":"0.00017400","NORAD_CAT_ID":"44931","TIME_SYSTEM":"UTC","MEAN_MOTION":"15.11164310","MEAN_MOTION_DDOT":"0.0000000000000","PERIAPSIS":"531.448","CENTER_NAME":"EARTH","EPOCH":"2023-02-03T05:14:46.213152","MEAN_ELEMENT_THEORY":"SGP4","GP_ID":"224307915","SITE":"AFETR","COUNTRY_CODE":"US"},{"MEAN_MOTION_DDOT":"0.0000000000000","MEAN_MOTION":"15.06399358","PERIAPSIS":"546.171","CENTER_NAME":"EARTH","EPOCH":"2023-02-03T18:11:44.267136","GP_ID":"224343418","SITE":"AFETR","MEAN_ELEMENT_THEORY":"SGP4","COUNTRY_CODE":"US","LAUNCH_DATE":"2020-01-07","ARG_OF_PERICENTER":"98.2723","REV_AT_EPOCH":"17077","INCLINATION":"53.0544","BSTAR":"0.00012536000000","OBJECT_TYPE":"PAYLOAD","OBJECT_ID":"2020-001U","ECCENTRICITY":"0.00015080","TIME_SYSTEM":"UTC","NORAD_CAT_ID":"44932","DECAY_DATE":null,"MEAN_ANOMALY":"261.8437","CLASSIFICATION_TYPE":"U","ELEMENT_SET_NO":"999","FILE":"3770748","RCS_SIZE":"LARGE","MEAN_MOTION_DOT":"0.00001586","TLE_LINE2":"2 44932  53.0544  19.0823 0001508  98.2723 261.8437 15.06399358170775","SEMIMAJOR_AXIS":"6925.351","PERIOD":"95.592","RA_OF_ASC_NODE":"19.0823","REF_FRAME":"TEME","EPHEMERIS_TYPE":"0","TLE_LINE1":"1 44932U 20001U   23034.75815124  .00001586  00000-0  12536-3 0  9990","APOAPSIS":"548.260","OBJECT_NAME":"STARLINK-1130"},{"TIME_SYSTEM":"UTC","NORAD_CAT_ID":"44933","ECCENTRICITY":"0.00014300","INCLINATION":"53.0543","BSTAR":"0.00012874000000","OBJECT_TYPE":"PAYLOAD","OBJECT_ID":"2020-001V","LAUNCH_DATE":"2020-01-07","ARG_OF_PERICENTER":"97.9650","REV_AT_EPOCH":"17077","COUNTRY_CODE":"US","EPOCH":"2023-02-03T09:15:38.994336","GP_ID":"224309414","SITE":"AFETR","MEAN_ELEMENT_THEORY":"SGP4","PERIAPSIS":"546.216","CENTER_NAME":"EARTH","MEAN_MOTION_DDOT":"0.0000000000000","MEAN_MOTION":"15.06402338","OBJECT_NAME":"STARLINK-1144","APOAPSIS":"548.197","REF_FRAME":"TEME","EPHEMERIS_TYPE":"0","TLE_LINE1":"1 44933U 20001V   23034.38586799  .00001637  00000-0  12874-3 0  9995","RA_OF_ASC_NODE":"20.7517","PERIOD":"95.592","RCS_SIZE":"LARGE","MEAN_MOTION_DOT":"0.00001637","TLE_LINE2":"2 44933  53.0543  20.7517 0001430  97.9650 262.1501 15.06402338170772","SEMIMAJOR_AXIS":"6925.341","ELEMENT_SET_NO":"999","FILE":"3770323","MEAN_ANOMALY":"262.1501","CLASSIFICATION_TYPE":"U","DECAY_DATE":null}];
